{"type": "FeatureCollection", "features": [ {"type": "Feature", "properties": {"norad_id": 30196, "name": "FENGYUN 1C DEB", "group": "fengyun-1c-debris", "lat": -63.533510159384115, "lon": -127.46477302449432, "alt_km": 869.7915744829315, "timestamp": "2025-12-03T17:47:50.992153+00:00", "meta": {"OBJECT_NAME": "FENGYUN 1C DEB", "OBJECT_ID": "1999-025VD", "EPOCH": "2025-12-03T05:00:35.218080", "MEAN_MOTION": 14.25842743, "ECCENTRICITY": 0.00870639, "INCLINATION": 98.6406, "RA_OF_ASC_NODE": 69.7939, "ARG_OF_PERICENTER": 90.6041, "MEAN_ANOMALY": 300.3805, "EPHEMERIS_TYPE": 0, "CLASSIFICATION_TYPE": "U", "NORAD_CAT_ID": 30196, "ELEMENT_SET_NO": 999, "REV_AT_EPOCH": 98229, "BSTAR": 8.1433967e-05, "MEAN_MOTION_DOT": 1.59e-06, "MEAN_MOTION_DDOT": 0}, "tle": {"line1": "1 30196U 99025VD  25337.20874095  .00000159  00000+0  81434-4 0  9997", "line2": "2 30196  98.6406  69.7939 0087063  90.6041 300.3805 14.25842743982290"}}, "geometry": {"type": "Point", "coordinates": [-127.46477302449432, -63.533510159384115]}}, {"type": "Feature", "properties": {"norad_id": 30197, "name": "FENGYUN 1C DEB", "group": "fengyun-1c-debris", "lat": 78.4039083130043, "lon": -147.32584925951164, "alt_km": 798.7242540461439, "timestamp": "2025-12-03T17:47:50.992163+00:00", "meta": {"OBJECT_NAME": "FENGYUN 1C DEB", "OBJECT_ID": "1999-025VE", "EPOCH": "2025-12-03T07:55:43.497984", "MEAN_MOTION": 14.37116192, "ECCENTRICITY": 0.0056996, "INCLINATION": 98.9375, "RA_OF_ASC_NODE": 262.3239, "ARG_OF_PERICENTER": 242.9732, "MEAN_ANOMALY": 233.6886, "EPHEMERIS_TYPE": 0, "CLASSIFICATION_TYPE": "U", "NORAD_CAT_ID": 30197, "ELEMENT_SET_NO": 999, "REV_AT_EPOCH": 98351, "BSTAR": 0.0012737, "MEAN_MOTION_DOT": 3.81e-05, "MEAN_MOTION_DDOT": 0}, "tle": {"line1": "1 30197U 99025VE  25337.33036456  .00003810  00000+0  12737-2 0  9998", "line2": "2 30197  98.9375 262.3239 0056996 242.9732 233.6886 14.37116192983511"}}, "geometry": {"type": "Point", "coordinates": [-147.32584925951164, 78.4039083130043]}}, {"type": "Feature", "properties": {"norad_id": 30198, "name": "FENGYUN 1C DEB", "group": "fengyun-1c-debris", "lat": -25.450833228324452, "lon": 112.80874076151812, "alt_km": 754.671011488178, "timestamp": "2025-12-03T17:47:50.992173+00:00", "meta": {"OBJECT_NAME": "FENGYUN 1C DEB", "OBJECT_ID": "1999-025VF", "EPOCH": "2025-12-03T08:14:15.184320", "MEAN_MOTION": 14.50087396, "ECCENTRICITY": 0.0107152, "INCLINATION": 98.4478, "RA_OF_ASC_NODE": 108.3534, "ARG_OF_PERICENTER": 226.8283, "MEAN_ANOMALY": 188.1614, "EPHEMERIS_TYPE": 0, "CLASSIFICATION_TYPE": "U", "NORAD_CAT_ID": 30198, "ELEMENT_SET_NO": 999, "REV_AT_EPOCH": 98371, "BSTAR": 0.002813, "MEAN_MOTION_DOT": 0.00011716, "MEAN_MOTION_DDOT": 0}, "tle": {"line1": "1 30198U 99025VF  25337.34323130  .00011716  00000+0  28130-2 0  9996", "line2": "2 30198  98.4478 108.3534 0107152 226.8283 188.1614 14.50087396983714"}}, "geometry": {"type": "Point", "coordinates": [112.80874076151812, -25.450833228324452]}}, {"type": "Feature", "properties": {"norad_id": 30199, "name": "FENGYUN 1C DEB", "group": "fengyun-1c-debris", "lat": 11.434067701628534, "lon": -0.028910323981606673, "alt_km": 719.6078150769563, "timestamp": "2025-12-03T17:47:50.992183+00:00", "meta": {"OBJECT_NAME": "FENGYUN 1C DEB", "OBJECT_ID": "1999-025VG", "EPOCH": "2025-12-03T01:23:23.229600", "MEAN_MOTION": 14.38417197, "ECCENTRICITY": 0.00781285, "INCLINATION": 98.3859, "RA_OF_ASC_NODE": 1.013, "ARG_OF_PERICENTER": 337.995, "MEAN_ANOMALY": 95.03, "EPHEMERIS_TYPE": 0, "CLASSIFICATION_TYPE": "U", "NORAD_CAT_ID": 30199, "ELEMENT_SET_NO": 999, "REV_AT_EPOCH": 98271, "BSTAR": 0.0013115075, "MEAN_MOTION_DOT": 4.102e-05, "MEAN_MOTION_DDOT": 0}, "tle": {"line1": "1 30199U 99025VG  25337.05790775  .00004102  00000+0  13115-2 0  9996", "line2": "2 30199  98.3859   1.0130 0078128 337.9950  95.0300 14.38417197982712"}}, "geometry": {"type": "Point", "coordinates": [-0.028910323981606673, 11.434067701628534]}}, {"type": "Feature", "properties": {"norad_id": 30200, "name": "FENGYUN 1C DEB", "group": "fengyun-1c-debris", "lat": 31.083480158109253, "lon": -2.2562345646679067, "alt_km": 718.4098284805768, "timestamp": "2025-12-03T17:47:50.992193+00:00", "meta": {"OBJECT_NAME": "FENGYUN 1C DEB", "OBJECT_ID": "1999-025VH", "EPOCH": "2025-12-03T12:02:47.821632", "MEAN_MOTION": 14.22265285, "ECCENTRICITY": 0.0147415, "INCLINATION": 99.1134, "RA_OF_ASC_NODE": 171.9431, "ARG_OF_PERICENTER": 125.5269, "MEAN_ANOMALY": 235.9758, "EPHEMERIS_TYPE": 0, "CLASSIFICATION_TYPE": "U", "NORAD_CAT_ID": 30200, "ELEMENT_SET_NO": 999, "REV_AT_EPOCH": 97851, "BSTAR": 0.0002214, "MEAN_MOTION_DOT": 5.03e-06, "MEAN_MOTION_DDOT": 0}, "tle": {"line1": "1 30200U 99025VH  25337.50194238  .00000503  00000+0  22140-3 0  9991", "line2": "2 30200  99.1134 171.9431 0147415 125.5269 235.9758 14.22265285978518"}}, "geometry": {"type": "Point", "coordinates": [-2.2562345646679067, 31.083480158109253]}}, {"type": "Feature", "properties": {"norad_id": 30201, "name": "FENGYUN 1C DEB", "group": "fengyun-1c-debris", "lat": 36.36658115747977, "lon": 104.3458704824044, "alt_km": 801.896972426126, "timestamp": "2025-12-03T17:47:50.992203+00:00", "meta": {"OBJECT_NAME": "FENGYUN 1C DEB", "OBJECT_ID": "1999-025VJ", "EPOCH": "2025-12-02T21:22:25.867488", "MEAN_MOTION": 14.22908745, "ECCENTRICITY": 0.00288934, "INCLINATION": 99.4007, "RA_OF_ASC_NODE": 110.4453, "ARG_OF_PERICENTER": 341.2921, "MEAN_ANOMALY": 18.7191, "EPHEMERIS_TYPE": 0, "CLASSIFICATION_TYPE": "U", "NORAD_CAT_ID": 30201, "ELEMENT_SET_NO": 999, "REV_AT_EPOCH": 97687, "BSTAR": 0.00057545116, "MEAN_MOTION_DOT": 1.249e-05, "MEAN_MOTION_DDOT": 0}, "tle": {"line1": "1 30201U 99025VJ  25336.89057717  .00001249  00000+0  57545-3 0  9998", "line2": "2 30201  99.4007 110.4453 0028893 341.2921  18.7191 14.22908745976873"}}, "geometry": {"type": "Point", "coordinates": [104.3458704824044, 36.36658115747977]}}, {"type": "Feature", "properties": {"norad_id": 30202, "name": "FENGYUN 1C DEB", "group": "fengyun-1c-debris", "lat": 30.91988240993411, "lon": -100.00411078158339, "alt_km": 703.7058421453739, "timestamp": "2025-12-03T17:47:50.992213+00:00", "meta": {"OBJECT_NAME": "FENGYUN 1C DEB", "OBJECT_ID": "1999-025VK", "EPOCH": "2025-12-03T05:32:35.030400", "MEAN_MOTION": 14.52075504, "ECCENTRICITY": 0.0039705, "INCLINATION": 98.6412, "RA_OF_ASC_NODE": 74.2447, "ARG_OF_PERICENTER": 88.397, "MEAN_ANOMALY": 272.1771, "EPHEMERIS_TYPE": 0, "CLASSIFICATION_TYPE": "U", "NORAD_CAT_ID": 30202, "ELEMENT_SET_NO": 999, "REV_AT_EPOCH": 98151, "BSTAR": 0.0031256, "MEAN_MOTION_DOT": 0.0001275, "MEAN_MOTION_DDOT": 0}, "tle": {"line1": "1 30202U 99025VK  25337.23096100  .00012750  00000+0  31256-2 0  9996", "line2": "2 30202  98.6412  74.2447 0039705  88.3970 272.1771 14.52075504981510"}}, "geometry": {"type": "Point", "coordinates": [-100.00411078158339, 30.91988240993411]}}, {"type": "Feature", "properties": {"norad_id": 30205, "name": "FENGYUN 1C DEB", "group": "fengyun-1c-debris", "lat": 61.85665154291296, "lon": -73.3769818267885, "alt_km": 924.4722728306069, "timestamp": "2025-12-03T17:47:50.992223+00:00", "meta": {"OBJECT_NAME": "FENGYUN 1C DEB", "OBJECT_ID": "1999-025VN", "EPOCH": "2025-12-03T06:56:17.971296", "MEAN_MOTION": 13.88027619, "ECCENTRICITY": 0.0120651, "INCLINATION": 98.9968, "RA_OF_ASC_NODE": 88.9595, "ARG_OF_PERICENTER": 205.3942, "MEAN_ANOMALY": 173.0161, "EPHEMERIS_TYPE": 0, "CLASSIFICATION_TYPE": "U", "NORAD_CAT_ID": 30205, "ELEMENT_SET_NO": 999, "REV_AT_EPOCH": 95507, "BSTAR": 0.00052552, "MEAN_MOTION_DOT": 6.21e-06, "MEAN_MOTION_DDOT": 0}, "tle": {"line1": "1 30205U 99025VN  25337.28909689  .00000621  00000+0  52552-3 0  9996", "line2": "2 30205  98.9968  88.9595 0120651 205.3942 173.0161 13.88027619955075"}}, "geometry": {"type": "Point", "coordinates": [-73.3769818267885, 61.85665154291296]}}, {"type": "Feature", "properties": {"norad_id": 30206, "name": "FENGYUN 1C DEB", "group": "fengyun-1c-debris", "lat": -50.756508205350094, "lon": 147.01454554091308, "alt_km": 837.2474712645144, "timestamp": "2025-12-03T17:47:50.992233+00:00", "meta": {"OBJECT_NAME": "FENGYUN 1C DEB", "OBJECT_ID": "1999-025VP", "EPOCH": "2025-12-02T22:30:44.908992", "MEAN_MOTION": 14.4909082, "ECCENTRICITY": 0.01465432, "INCLINATION": 98.2311, "RA_OF_ASC_NODE": 336.4376, "ARG_OF_PERICENTER": 66.1014, "MEAN_ANOMALY": 295.5454, "EPHEMERIS_TYPE": 0, "CLASSIFICATION_TYPE": "U", "NORAD_CAT_ID": 30206, "ELEMENT_SET_NO": 999, "REV_AT_EPOCH": 99259, "BSTAR": 0.00057072954, "MEAN_MOTION_DOT": 2.438e-05, "MEAN_MOTION_DDOT": 0}, "tle": {"line1": "1 30206U 99025VP  25336.93801978  .00002438  00000+0  57073-3 0  9991", "line2": "2 30206  98.2311 336.4376 0146543  66.1014 295.5454 14.49090820992595"}}, "geometry": {"type": "Point", "coordinates": [147.01454554091308, -50.756508205350094]}}, {"type": "Feature", "properties": {"norad_id": 30207, "name": "FENGYUN 1C DEB", "group": "fengyun-1c-debris", "lat": -52.60849583829546, "lon": 100.66974361629248, "alt_km": 1103.9774053064639, "timestamp": "2025-12-03T17:47:50.992243+00:00", "meta": {"OBJECT_NAME": "FENGYUN 1C DEB", "OBJECT_ID": "1999-025VQ", "EPOCH": "2025-12-03T07:57:24.710400", "MEAN_MOTION": 13.79124285, "ECCENTRICITY": 0.0260237, "INCLINATION": 98.574, "RA_OF_ASC_NODE": 88.9142, "ARG_OF_PERICENTER": 173.7657, "MEAN_ANOMALY": 256.0565, "EPHEMERIS_TYPE": 0, "CLASSIFICATION_TYPE": "U", "NORAD_CAT_ID": 30207, "ELEMENT_SET_NO": 999, "REV_AT_EPOCH": 94933, "BSTAR": 0.0004638, "MEAN_MOTION_DOT": 5.74e-06, "MEAN_MOTION_DDOT": 0}, "tle": {"line1": "1 30207U 99025VQ  25337.33153600  .00000574  00000+0  46380-3 0  9997", "line2": "2 30207  98.5740  88.9142 0260237 173.7657 256.0565 13.79124285949334"}}, "geometry": {"type": "Point", "coordinates": [100.66974361629248, -52.60849583829546]}}]}